GLOBALSTAR M035         
1 25851U 99037A   24142.45058802  .00000000  00000+0  24193-2 0  9994
2 25851  51.9929 208.5681 0013155  68.8879  24.9534 11.04530574 52979
GLOBALSTAR M032         
1 25852U 99037B   24142.91535234 -.00000043  00000+0  76873-3 0  9996
2 25852  51.9972  59.7232 0009406 227.5221 132.4785 11.19052764 90987
GLOBALSTAR M030         
1 25854U 99037D   24143.03228303 -.00000074  00000+0  16107-4 0  9997
2 25854  51.9868  95.4735 0004068  64.8328 295.2910 11.55096112104942
GLOBALSTAR M048         
1 25872U 99041A   24143.12550262 -.00000024  00000+0  12510-2 0  9991
2 25872  51.9339 184.1866 0013824 227.9368 144.9614 11.33846557 80500
GLOBALSTAR M026         
1 25873U 99041B   24142.94379937 -.00000118  00000+0 -19851-2 0  9999
2 25873  52.0036 329.5451 0001024 345.8232 163.8737 11.06836535105162
GLOBALSTAR M043         
1 25874U 99041C   24142.68040494 -.00000093  00000+0 -73161-3 0  9991
2 25874  51.9408 277.2827 0012166   6.9897  93.1344 11.25681536 78787
GLOBALSTAR M028         
1 25875U 99041D   24142.60048544 -.00000086  00000+0  89328-4 0  9992
2 25875  51.9629 280.6820 0062683 301.0356  58.4360 12.50555847141183
